[{"AMPHUR_ID":"709","AMPHUR_CODE":"6201","AMPHUR_NAME":"\u0e40\u0e21\u0e37\u0e2d\u0e07\u0e01\u0e33\u0e41\u0e1e\u0e07\u0e40\u0e1e\u0e0a\u0e23   ","POSTCODE":"62000","GEO_ID":"2","PROVINCE_ID":"49"},{"AMPHUR_ID":"710","AMPHUR_CODE":"6202","AMPHUR_NAME":"\u0e44\u0e17\u0e23\u0e07\u0e32\u0e21   ","POSTCODE":"62150","GEO_ID":"2","PROVINCE_ID":"49"},{"AMPHUR_ID":"711","AMPHUR_CODE":"6203","AMPHUR_NAME":"\u0e04\u0e25\u0e2d\u0e07\u0e25\u0e32\u0e19   ","POSTCODE":"62180","GEO_ID":"2","PROVINCE_ID":"49"},{"AMPHUR_ID":"712","AMPHUR_CODE":"6204","AMPHUR_NAME":"\u0e02\u0e32\u0e13\u0e38\u0e27\u0e23\u0e25\u0e31\u0e01\u0e29\u0e1a\u0e38\u0e23\u0e35   ","POSTCODE":"62130","GEO_ID":"2","PROVINCE_ID":"49"},{"AMPHUR_ID":"713","AMPHUR_CODE":"6205","AMPHUR_NAME":"\u0e04\u0e25\u0e2d\u0e07\u0e02\u0e25\u0e38\u0e07   ","POSTCODE":"62120","GEO_ID":"2","PROVINCE_ID":"49"},{"AMPHUR_ID":"714","AMPHUR_CODE":"6206","AMPHUR_NAME":"\u0e1e\u0e23\u0e32\u0e19\u0e01\u0e23\u0e30\u0e15\u0e48\u0e32\u0e22   ","POSTCODE":"62110","GEO_ID":"2","PROVINCE_ID":"49"},{"AMPHUR_ID":"715","AMPHUR_CODE":"6207","AMPHUR_NAME":"\u0e25\u0e32\u0e19\u0e01\u0e23\u0e30\u0e1a\u0e37\u0e2d   ","POSTCODE":"62170","GEO_ID":"2","PROVINCE_ID":"49"},{"AMPHUR_ID":"716","AMPHUR_CODE":"6208","AMPHUR_NAME":"\u0e17\u0e23\u0e32\u0e22\u0e17\u0e2d\u0e07\u0e27\u0e31\u0e12\u0e19\u0e32   ","POSTCODE":"62190","GEO_ID":"2","PROVINCE_ID":"49"},{"AMPHUR_ID":"717","AMPHUR_CODE":"6209","AMPHUR_NAME":"\u0e1b\u0e32\u0e07\u0e28\u0e34\u0e25\u0e32\u0e17\u0e2d\u0e07   ","POSTCODE":"62120","GEO_ID":"2","PROVINCE_ID":"49"},{"AMPHUR_ID":"718","AMPHUR_CODE":"6210","AMPHUR_NAME":"\u0e1a\u0e36\u0e07\u0e2a\u0e32\u0e21\u0e31\u0e04\u0e04\u0e35   ","POSTCODE":"62210","GEO_ID":"2","PROVINCE_ID":"49"},{"AMPHUR_ID":"719","AMPHUR_CODE":"6211","AMPHUR_NAME":"\u0e42\u0e01\u0e2a\u0e31\u0e21\u0e1e\u0e35\u0e19\u0e04\u0e23   ","POSTCODE":"62000","GEO_ID":"2","PROVINCE_ID":"49"}]